start=new Date('2023-06-17T00:00:00.000Z').valueOf();
sats=[{"REV_AT_EPOCH":"17946","ARG_OF_PERICENTER":"96.1566","OBJECT_NAME":"STARLINK-1302","TIME_SYSTEM":"UTC","MEAN_MOTION_DOT":"0.00022310","TLE_LINE2":"2 45375  53.0546 322.2117 0001006  96.1566 263.9538 15.06409596179465","ECCENTRICITY":"0.00010060","MEAN_ELEMENT_THEORY":"SGP4","PERIAPSIS":"546.487","MEAN_ANOMALY":"263.9538","LAUNCH_DATE":"2020-03-18","APOAPSIS":"547.881","REF_FRAME":"TEME","GP_ID":"234091040","NORAD_CAT_ID":"45375","FILE":"3934949","RCS_SIZE":"LARGE","TLE_LINE1":"1 45375U 20019R   23167.71550875  .00022310  00000-0  15115-2 0  9996","SEMIMAJOR_AXIS":"6925.319","MEAN_MOTION_DDOT":"0.0000000000000","SITE":"AFETR","CENTER_NAME":"EARTH","ELEMENT_SET_NO":"999","DECAY_DATE":null,"EPHEMERIS_TYPE":"0","EPOCH":"2023-06-16T17:10:19.956000","MEAN_MOTION":"15.06409596","INCLINATION":"53.0546","OBJECT_TYPE":"PAYLOAD","PERIOD":"95.592","BSTAR":"0.00151150000000","COUNTRY_CODE":"US","CLASSIFICATION_TYPE":"U","OBJECT_ID":"2020-019R","RA_OF_ASC_NODE":"322.2117"},{"TIME_SYSTEM":"UTC","OBJECT_NAME":"STARLINK-1304","ARG_OF_PERICENTER":"86.7914","REV_AT_EPOCH":"17946","MEAN_MOTION_DOT":"0.00008587","TLE_LINE2":"2 45376  53.0542 322.1281 0001032  86.7914 273.3193 15.06407766179463","MEAN_ANOMALY":"273.3193","PERIAPSIS":"546.475","MEAN_ELEMENT_THEORY":"SGP4","ECCENTRICITY":"0.00010320","APOAPSIS":"547.904","LAUNCH_DATE":"2020-03-18","GP_ID":"234092288","REF_FRAME":"TEME","NORAD_CAT_ID":"45376","FILE":"3934949","RCS_SIZE":"LARGE","ELEMENT_SET_NO":"999","CENTER_NAME":"EARTH","MEAN_MOTION_DDOT":"0.0000000000000","SITE":"AFETR","TLE_LINE1":"1 45376U 20019S   23167.73393786  .00008587  00000-0  59451-3 0  9997","SEMIMAJOR_AXIS":"6925.325","DECAY_DATE":null,"MEAN_MOTION":"15.06407766","EPOCH":"2023-06-16T17:36:52.231104","EPHEMERIS_TYPE":"0","BSTAR":"0.00059451000000","PERIOD":"95.592","OBJECT_TYPE":"PAYLOAD","INCLINATION":"53.0542","CLASSIFICATION_TYPE":"U","COUNTRY_CODE":"US","OBJECT_ID":"2020-019S","RA_OF_ASC_NODE":"322.1281"},{"REF_FRAME":"TEME","GP_ID":"234092528","FILE":"3934949","NORAD_CAT_ID":"45377","RCS_SIZE":"LARGE","ECCENTRICITY":"0.00009440","PERIAPSIS":"546.514","MEAN_ELEMENT_THEORY":"SGP4","MEAN_ANOMALY":"274.8386","LAUNCH_DATE":"2020-03-18","APOAPSIS":"547.821","MEAN_MOTION_DOT":"0.00013184","TLE_LINE2":"2 45377  53.0537 321.7159 0000944  85.2710 274.8386 15.06415045179487","REV_AT_EPOCH":"17948","ARG_OF_PERICENTER":"85.2710","OBJECT_NAME":"STARLINK-1305","TIME_SYSTEM":"UTC","OBJECT_ID":"2020-019T","RA_OF_ASC_NODE":"321.7159","COUNTRY_CODE":"US","CLASSIFICATION_TYPE":"U","EPHEMERIS_TYPE":"0","EPOCH":"2023-06-16T19:49:33.891744","MEAN_MOTION":"15.06415045","INCLINATION":"53.0537","OBJECT_TYPE":"PAYLOAD","PERIOD":"95.591","BSTAR":"0.00090195000000","TLE_LINE1":"1 45377U 20019T   23167.82608671  .00013184  00000-0  90195-3 0  9999","SEMIMAJOR_AXIS":"6925.302","MEAN_MOTION_DDOT":"0.0000000000000","SITE":"AFETR","ELEMENT_SET_NO":"999","CENTER_NAME":"EARTH","DECAY_DATE":null},{"RA_OF_ASC_NODE":"321.7597","OBJECT_ID":"2020-019U","COUNTRY_CODE":"US","CLASSIFICATION_TYPE":"U","INCLINATION":"53.0547","OBJECT_TYPE":"PAYLOAD","PERIOD":"95.592","BSTAR":"0.00029664000000","EPOCH":"2023-06-16T19:33:38.339712","EPHEMERIS_TYPE":"0","MEAN_MOTION":"15.06405197","DECAY_DATE":null,"SEMIMAJOR_AXIS":"6925.333","TLE_LINE1":"1 45378U 20019U   23167.81502708  .00004140  00000-0  29664-3 0  9998","SITE":"AFETR","MEAN_MOTION_DDOT":"0.0000000000000","ELEMENT_SET_NO":"999","CENTER_NAME":"EARTH","FILE":"3934949","RCS_SIZE":"LARGE","NORAD_CAT_ID":"45378","REF_FRAME":"TEME","GP_ID":"234091290","LAUNCH_DATE":"2020-03-18","APOAPSIS":"548.015","ECCENTRICITY":"0.00011800","MEAN_ANOMALY":"271.0832","PERIAPSIS":"546.380","MEAN_ELEMENT_THEORY":"SGP4","TLE_LINE2":"2 45378  53.0547 321.7597 0001180  89.0293 271.0832 15.06405197179488","MEAN_MOTION_DOT":"0.00004140","REV_AT_EPOCH":"17948","ARG_OF_PERICENTER":"89.0293","OBJECT_NAME":"STARLINK-1310","TIME_SYSTEM":"UTC"},{"OBJECT_ID":"2020-019V","RA_OF_ASC_NODE":"321.7486","CLASSIFICATION_TYPE":"U","COUNTRY_CODE":"US","MEAN_MOTION":"15.06407547","EPOCH":"2023-06-16T19:38:56.715072","EPHEMERIS_TYPE":"0","BSTAR":"0.00159080000000","PERIOD":"95.592","OBJECT_TYPE":"PAYLOAD","INCLINATION":"53.0537","ELEMENT_SET_NO":"999","CENTER_NAME":"EARTH","SITE":"AFETR","MEAN_MOTION_DDOT":"0.0000000000000","SEMIMAJOR_AXIS":"6925.325","TLE_LINE1":"1 45379U 20019V   23167.81871198  .00023498  00000-0  15908-2 0  9993","DECAY_DATE":null,"GP_ID":"234091540","REF_FRAME":"TEME","FILE":"3934949","RCS_SIZE":"LARGE","NORAD_CAT_ID":"45379","MEAN_ELEMENT_THEORY":"SGP4","PERIAPSIS":"546.515","MEAN_ANOMALY":"282.0923","ECCENTRICITY":"0.00009750","APOAPSIS":"547.866","LAUNCH_DATE":"2020-03-18","MEAN_MOTION_DOT":"0.00023498","TLE_LINE2":"2 45379  53.0537 321.7486 0000975  78.0175 282.0923 15.06407547179487","TIME_SYSTEM":"UTC","OBJECT_NAME":"STARLINK-1319","ARG_OF_PERICENTER":"78.0175","REV_AT_EPOCH":"17948"},{"DECAY_DATE":null,"SEMIMAJOR_AXIS":"6925.343","TLE_LINE1":"1 45380U 20019W   23167.81687737  .00027698  00000-0  18710-2 0  9999","MEAN_MOTION_DDOT":"0.0000000000000","SITE":"AFETR","CENTER_NAME":"EARTH","ELEMENT_SET_NO":"999","INCLINATION":"53.0539","OBJECT_TYPE":"PAYLOAD","PERIOD":"95.592","BSTAR":"0.00187100000000","EPHEMERIS_TYPE":"0","EPOCH":"2023-06-16T19:36:18.204768","MEAN_MOTION":"15.06401651","COUNTRY_CODE":"US","CLASSIFICATION_TYPE":"U","RA_OF_ASC_NODE":"301.7541","OBJECT_ID":"2020-019W","REV_AT_EPOCH":"17975","ARG_OF_PERICENTER":"77.5192","OBJECT_NAME":"STARLINK-1207","TIME_SYSTEM":"UTC","TLE_LINE2":"2 45380  53.0539 301.7541 0000550  77.5192 282.5858 15.06401651179755","MEAN_MOTION_DOT":"0.00027698","LAUNCH_DATE":"2020-03-18","APOAPSIS":"547.589","ECCENTRICITY":"0.00005500","PERIAPSIS":"546.828","MEAN_ELEMENT_THEORY":"SGP4","MEAN_ANOMALY":"282.5858","FILE":"3934949","RCS_SIZE":"LARGE","NORAD_CAT_ID":"45380","GP_ID":"234091789","REF_FRAME":"TEME"},{"RA_OF_ASC_NODE":"302.0007","OBJECT_ID":"2020-019X","CLASSIFICATION_TYPE":"U","COUNTRY_CODE":"US","PERIOD":"95.591","BSTAR":"0.00085225000000","INCLINATION":"53.0546","OBJECT_TYPE":"PAYLOAD","MEAN_MOTION":"15.06413517","EPOCH":"2023-06-16T18:16:40.147392","EPHEMERIS_TYPE":"0","DECAY_DATE":null,"SITE":"AFETR","MEAN_MOTION_DDOT":"0.0000000000000","ELEMENT_SET_NO":"999","CENTER_NAME":"EARTH","TLE_LINE1":"1 45381U 20019X   23167.76157578  .00012440  00000-0  85225-3 0  9994","SEMIMAJOR_AXIS":"6925.307","FILE":"3934949","NORAD_CAT_ID":"45381","RCS_SIZE":"LARGE","GP_ID":"234092029","REF_FRAME":"TEME","APOAPSIS":"547.777","LAUNCH_DATE":"2020-03-18","ECCENTRICITY":"0.00008730","PERIAPSIS":"546.568","MEAN_ANOMALY":"274.0297","MEAN_ELEMENT_THEORY":"SGP4","TLE_LINE2":"2 45381  53.0546 302.0007 0000873  86.0792 274.0297 15.06413517179740","MEAN_MOTION_DOT":"0.00012440","OBJECT_NAME":"STARLINK-1258","TIME_SYSTEM":"UTC","REV_AT_EPOCH":"17974","ARG_OF_PERICENTER":"86.0792"},{"EPOCH":"2023-06-16T15:29:06.220896","EPHEMERIS_TYPE":"0","MEAN_MOTION":"15.23256862","INCLINATION":"53.0294","OBJECT_TYPE":"PAYLOAD","PERIOD":"94.534","BSTAR":"0.00234640000000","SEMIMAJOR_AXIS":"6874.162","TLE_LINE1":"1 45382U 20019Y   23167.64521089  .00056416  00000-0  23464-2 0  9991","MEAN_MOTION_DDOT":"0.0000000000000","SITE":"AFETR","ELEMENT_SET_NO":"999","CENTER_NAME":"EARTH","DECAY_DATE":null,"OBJECT_ID":"2020-019Y","RA_OF_ASC_NODE":"288.1335","COUNTRY_CODE":"US","CLASSIFICATION_TYPE":"U","MEAN_MOTION_DOT":"0.00056416","TLE_LINE2":"2 45382  53.0294 288.1335 0001222  73.6438 286.4692 15.23256862179751","REV_AT_EPOCH":"17975","ARG_OF_PERICENTER":"73.6438","OBJECT_NAME":"STARLINK-1264","TIME_SYSTEM":"UTC","GP_ID":"234090791","REF_FRAME":"TEME","FILE":"3934949","RCS_SIZE":"LARGE","NORAD_CAT_ID":"45382","ECCENTRICITY":"0.00012220","MEAN_ANOMALY":"286.4692","PERIAPSIS":"495.187","MEAN_ELEMENT_THEORY":"SGP4","LAUNCH_DATE":"2020-03-18","APOAPSIS":"496.867"},{"TLE_LINE2":"2 45383  53.0539 302.0330 0000799 106.0879 254.0198 15.06395708179748","MEAN_MOTION_DOT":"0.00002249","ARG_OF_PERICENTER":"106.0879","REV_AT_EPOCH":"17974","TIME_SYSTEM":"UTC","OBJECT_NAME":"STARLINK-1266","NORAD_CAT_ID":"45383","FILE":"3934949","RCS_SIZE":"LARGE","REF_FRAME":"TEME","GP_ID":"234091041","LAUNCH_DATE":"2020-03-18","APOAPSIS":"547.780","PERIAPSIS":"546.673","MEAN_ELEMENT_THEORY":"SGP4","MEAN_ANOMALY":"254.0198","ECCENTRICITY":"0.00007990","OBJECT_TYPE":"PAYLOAD","INCLINATION":"53.0539","BSTAR":"0.00016981000000","PERIOD":"95.592","EPHEMERIS_TYPE":"0","EPOCH":"2023-06-16T18:06:03.547008","MEAN_MOTION":"15.06395708","DECAY_DATE":null,"TLE_LINE1":"1 45383U 20019Z   23167.75420772  .00002249  00000-0  16981-3 0  9993","SEMIMAJOR_AXIS":"6925.362","ELEMENT_SET_NO":"999","CENTER_NAME":"EARTH","MEAN_MOTION_DDOT":"0.0000000000000","SITE":"AFETR","RA_OF_ASC_NODE":"302.0330","OBJECT_ID":"2020-019Z","COUNTRY_CODE":"US","CLASSIFICATION_TYPE":"U"},{"MEAN_MOTION_DOT":"0.00003973","TLE_LINE2":"2 45384  53.0544 302.3766 0000800 101.4995 258.6084 15.06402101179731","TIME_SYSTEM":"UTC","OBJECT_NAME":"STARLINK-1267","ARG_OF_PERICENTER":"101.4995","REV_AT_EPOCH":"17973","REF_FRAME":"TEME","GP_ID":"234092289","RCS_SIZE":"LARGE","FILE":"3934949","NORAD_CAT_ID":"45384","PERIAPSIS":"546.653","MEAN_ANOMALY":"258.6084","MEAN_ELEMENT_THEORY":"SGP4","ECCENTRICITY":"0.00008000","APOAPSIS":"547.761","LAUNCH_DATE":"2020-03-18","MEAN_MOTION":"15.06402101","EPOCH":"2023-06-16T16:13:14.410272","EPHEMERIS_TYPE":"0","BSTAR":"0.00028543000000","PERIOD":"95.592","OBJECT_TYPE":"PAYLOAD","INCLINATION":"53.0544","ELEMENT_SET_NO":"999","CENTER_NAME":"EARTH","SITE":"AFETR","MEAN_MOTION_DDOT":"0.0000000000000","TLE_LINE1":"1 45384U 20019AA  23167.67586123  .00003973  00000-0  28543-3 0  9990","SEMIMAJOR_AXIS":"6925.342","DECAY_DATE":null,"OBJECT_ID":"2020-019AA","RA_OF_ASC_NODE":"302.3766","CLASSIFICATION_TYPE":"U","COUNTRY_CODE":"US"}];
